{
  "norad_id": 46713,
  "name": "STARLINK-1815",
  "history": [
    {
      "epoch": "2026-03-28T08:25:25.187808",
      "apogee_km": 356.52679934884964,
      "perigee_km": 347.2912917614549,
      "latitude_deg": -22.98047102681803,
      "longitude_deg": -35.00534687982872,
      "semi_major_axis_km": 6730.046045555152,
      "eccentricity": 0.00068614,
      "inclination_deg": 53.043,
      "raan_deg": 109.9335,
      "arg_perigee_deg": 45.8662,
      "mean_anomaly_deg": 314.2919,
      "mean_motion_rev_day": 15.72445886
    }
  ]
}