{"fetched_at":"2026-03-29T02:12:04Z","count":15717,"tles":[{"name":"STARLINK-1815","line1":"1 46713U 20073AV  26087.35098597  .00128609  00000+0  93519-3 0  9997","line2":"2 46713  53.0430 109.9335 0006861  45.8662 314.2919 15.72445886300619","category":"Starlink"}]}